CCSDS_OMM_VERS = 2.0
CREATION_DATE  = 
ORIGINATOR     = 

OBJECT_NAME    = STARLINK-36976
OBJECT_ID      = 2026-041AC
CENTER_NAME    = EARTH
REF_FRAME      = TEME
TIME_SYSTEM    = UTC
MEAN_ELEMENT_THEORY = SGP/SGP4

EPOCH          = 2026-03-15T06:00:00.999648
MEAN_MOTION    = 15.80870629
ECCENTRICITY   = .00012141
INCLINATION    = 53.1594
RA_OF_ASC_NODE = 34.0385
ARG_OF_PERICENTER = 92.1445
MEAN_ANOMALY   = 168.0694

EPHEMERIS_TYPE = 0
CLASSIFICATION_TYPE = U
NORAD_CAT_ID   = 68066
ELEMENT_SET_NO = 999
REV_AT_EPOCH   = 327
BSTAR          = .18133751E-3
MEAN_MOTION_DOT = .35233E-3
MEAN_MOTION_DDOT = 0

CCSDS_OMM_VERS = 2.0
CREATION_DATE  = 
ORIGINATOR     = 

OBJECT_NAME    = STARLINK-36929
OBJECT_ID      = 2026-041AD
CENTER_NAME    = EARTH
REF_FRAME      = TEME
TIME_SYSTEM    = UTC
MEAN_ELEMENT_THEORY = SGP/SGP4

EPOCH          = 2026-03-15T06:00:00.999648
MEAN_MOTION    = 15.80722364
ECCENTRICITY   = .00012161
INCLINATION    = 53.1593
RA_OF_ASC_NODE = 34.0561
ARG_OF_PERICENTER = 96.6532
MEAN_ANOMALY   = 154.9953

EPHEMERIS_TYPE = 0
CLASSIFICATION_TYPE = U
NORAD_CAT_ID   = 68067
ELEMENT_SET_NO = 999
REV_AT_EPOCH   = 327
BSTAR          = -.11318377E-1
MEAN_MOTION_DOT = -.1931869E-1
MEAN_MOTION_DDOT = 0

CCSDS_OMM_VERS = 2.0
CREATION_DATE  = 
ORIGINATOR     = 

OBJECT_NAME    = STARLINK-36990
OBJECT_ID      = 2026-041AE
CENTER_NAME    = EARTH
REF_FRAME      = TEME
TIME_SYSTEM    = UTC
MEAN_ELEMENT_THEORY = SGP/SGP4

EPOCH          = 2026-03-15T06:00:00.999648
MEAN_MOTION    = 15.80845071
ECCENTRICITY   = .0000912
INCLINATION    = 53.1594
RA_OF_ASC_NODE = 34.0292
ARG_OF_PERICENTER = 108.0987
MEAN_ANOMALY   = 156.3902

EPHEMERIS_TYPE = 0
CLASSIFICATION_TYPE = U
NORAD_CAT_ID   = 68068
ELEMENT_SET_NO = 999
REV_AT_EPOCH   = 327
BSTAR          = .45143744E-3
MEAN_MOTION_DOT = .89209E-3
MEAN_MOTION_DDOT = 0

CCSDS_OMM_VERS = 2.0
CREATION_DATE  = 
ORIGINATOR     = 

OBJECT_NAME    = STARLINK-36766
OBJECT_ID      = 2026-042A
CENTER_NAME    = EARTH
REF_FRAME      = TEME
TIME_SYSTEM    = UTC
MEAN_ELEMENT_THEORY = SGP/SGP4

EPOCH          = 2026-03-15T06:00:00.999648
MEAN_MOTION    = 15.85602346
ECCENTRICITY   = .00009062
INCLINATION    = 53.1598
RA_OF_ASC_NODE = 166.9379
ARG_OF_PERICENTER = 79.4403
MEAN_ANOMALY   = 213.8017

EPHEMERIS_TYPE = 0
CLASSIFICATION_TYPE = U
NORAD_CAT_ID   = 68069
ELEMENT_SET_NO = 999
REV_AT_EPOCH   = 293
BSTAR          = -.66905493E-2
MEAN_MOTION_DOT = -.1465048E-1
MEAN_MOTION_DDOT = 0

CCSDS_OMM_VERS = 2.0
CREATION_DATE  = 
ORIGINATOR     = 

OBJECT_NAME    = STARLINK-36823
OBJECT_ID      = 2026-042B
CENTER_NAME    = EARTH
REF_FRAME      = TEME
TIME_SYSTEM    = UTC
MEAN_ELEMENT_THEORY = SGP/SGP4

EPOCH          = 2026-03-15T06:00:00.999648
MEAN_MOTION    = 15.85708894
ECCENTRICITY   = .00009039
INCLINATION    = 53.1593
RA_OF_ASC_NODE = 166.9300
ARG_OF_PERICENTER = 87.7692
MEAN_ANOMALY   = 209.1988

EPHEMERIS_TYPE = 0
CLASSIFICATION_TYPE = U
NORAD_CAT_ID   = 68070
ELEMENT_SET_NO = 999
REV_AT_EPOCH   = 293
BSTAR          = -.66741472E-2
MEAN_MOTION_DOT = -.1468646E-1
MEAN_MOTION_DDOT = 0

CCSDS_OMM_VERS = 2.0
CREATION_DATE  = 
ORIGINATOR     = 

OBJECT_NAME    = STARLINK-36970
OBJECT_ID      = 2026-042C
CENTER_NAME    = EARTH
REF_FRAME      = TEME
TIME_SYSTEM    = UTC
MEAN_ELEMENT_THEORY = SGP/SGP4

EPOCH          = 2026-03-15T06:00:00.999648
MEAN_MOTION    = 15.85925852
ECCENTRICITY   = .00009543
INCLINATION    = 53.1600
RA_OF_ASC_NODE = 166.9151
ARG_OF_PERICENTER = 81.2841
MEAN_ANOMALY   = 223.0458

EPHEMERIS_TYPE = 0
CLASSIFICATION_TYPE = U
NORAD_CAT_ID   = 68071
ELEMENT_SET_NO = 999
REV_AT_EPOCH   = 294
BSTAR          = -.65969586E-2
MEAN_MOTION_DOT = -.1438134E-1
MEAN_MOTION_DDOT = 0

CCSDS_OMM_VERS = 2.0
CREATION_DATE  = 
ORIGINATOR     = 

OBJECT_NAME    = STARLINK-36972
OBJECT_ID      = 2026-042D
CENTER_NAME    = EARTH
REF_FRAME      = TEME
TIME_SYSTEM    = UTC
MEAN_ELEMENT_THEORY = SGP/SGP4

EPOCH          = 2026-03-15T06:00:00.999648
MEAN_MOTION    = 15.85840809
ECCENTRICITY   = .00009835
INCLINATION    = 53.1599
RA_OF_ASC_NODE = 166.9230
ARG_OF_PERICENTER = 79.9253
MEAN_ANOMALY   = 220.5699

EPHEMERIS_TYPE = 0
CLASSIFICATION_TYPE = U
NORAD_CAT_ID   = 68072
ELEMENT_SET_NO = 999
REV_AT_EPOCH   = 294
BSTAR          = -.66240298E-2
MEAN_MOTION_DOT = -.1438041E-1
MEAN_MOTION_DDOT = 0

CCSDS_OMM_VERS = 2.0
CREATION_DATE  = 
ORIGINATOR     = 

OBJECT_NAME    = STARLINK-37074
OBJECT_ID      = 2026-042E
CENTER_NAME    = EARTH
REF_FRAME      = TEME
TIME_SYSTEM    = UTC
MEAN_ELEMENT_THEORY = SGP/SGP4

EPOCH          = 2026-03-15T06:00:00.999648
MEAN_MOTION    = 15.86028452
ECCENTRICITY   = .00007446
INCLINATION    = 53.1600
RA_OF_ASC_NODE = 166.9077
ARG_OF_PERICENTER = 85.9388
MEAN_ANOMALY   = 222.0959

EPHEMERIS_TYPE = 0
CLASSIFICATION_TYPE = U
NORAD_CAT_ID   = 68073
ELEMENT_SET_NO = 999
REV_AT_EPOCH   = 294
BSTAR          = -.65640105E-2
MEAN_MOTION_DOT = -.1438039E-1
MEAN_MOTION_DDOT = 0

CCSDS_OMM_VERS = 2.0
CREATION_DATE  = 
ORIGINATOR     = 

OBJECT_NAME    = STARLINK-37045
OBJECT_ID      = 2026-042F
CENTER_NAME    = EARTH
REF_FRAME      = TEME
TIME_SYSTEM    = UTC
MEAN_ELEMENT_THEORY = SGP/SGP4

EPOCH          = 2026-03-15T06:00:00.999648
MEAN_MOTION    = 15.86120356
ECCENTRICITY   = .00009354
INCLINATION    = 53.1598
RA_OF_ASC_NODE = 166.8995
ARG_OF_PERICENTER = 77.4775
MEAN_ANOMALY   = 234.3560

EPHEMERIS_TYPE = 0
CLASSIFICATION_TYPE = U
NORAD_CAT_ID   = 68074
ELEMENT_SET_NO = 999
REV_AT_EPOCH   = 294
BSTAR          = -.65582041E-2
MEAN_MOTION_DOT = -.1442731E-1
MEAN_MOTION_DDOT = 0

CCSDS_OMM_VERS = 2.0
CREATION_DATE  = 
ORIGINATOR     = 

OBJECT_NAME    = STARLINK-37026
OBJECT_ID      = 2026-042G
CENTER_NAME    = EARTH
REF_FRAME      = TEME
TIME_SYSTEM    = UTC
MEAN_ELEMENT_THEORY = SGP/SGP4

EPOCH          = 2026-03-15T06:00:00.999648
MEAN_MOTION    = 15.86210177
ECCENTRICITY   = .00007554
INCLINATION    = 53.1598
RA_OF_ASC_NODE = 166.8916
ARG_OF_PERICENTER = 92.7081
MEAN_ANOMALY   = 222.9628

EPHEMERIS_TYPE = 0
CLASSIFICATION_TYPE = U
NORAD_CAT_ID   = 68075
ELEMENT_SET_NO = 999
REV_AT_EPOCH   = 294
BSTAR          = -.65787007E-2
MEAN_MOTION_DOT = -.1481936E-1
MEAN_MOTION_DDOT = 0

CCSDS_OMM_VERS = 2.0
CREATION_DATE  = 
ORIGINATOR     = 

OBJECT_NAME    = STARLINK-37023
OBJECT_ID      = 2026-042H
CENTER_NAME    = EARTH
REF_FRAME      = TEME
TIME_SYSTEM    = UTC
MEAN_ELEMENT_THEORY = SGP/SGP4

EPOCH          = 2026-03-15T06:00:00.999648
MEAN_MOTION    = 15.86312994
ECCENTRICITY   = .00008982
INCLINATION    = 53.1598
RA_OF_ASC_NODE = 166.8840
ARG_OF_PERICENTER = 82.9118
MEAN_ANOMALY   = 236.4641

EPHEMERIS_TYPE = 0
CLASSIFICATION_TYPE = U
NORAD_CAT_ID   = 68076
ELEMENT_SET_NO = 999
REV_AT_EPOCH   = 294
BSTAR          = -.65577429E-2
MEAN_MOTION_DOT = -.1484505E-1
MEAN_MOTION_DDOT = 0

CCSDS_OMM_VERS = 2.0
CREATION_DATE  = 
ORIGINATOR     = 

OBJECT_NAME    = STARLINK-37036
OBJECT_ID      = 2026-042J
CENTER_NAME    = EARTH
REF_FRAME      = TEME
TIME_SYSTEM    = UTC
MEAN_ELEMENT_THEORY = SGP/SGP4

EPOCH          = 2026-03-15T06:00:00.999648
MEAN_MOTION    = 15.86435454
ECCENTRICITY   = .00010301
INCLINATION    = 53.1599
RA_OF_ASC_NODE = 166.8768
ARG_OF_PERICENTER = 85.8230
MEAN_ANOMALY   = 237.0782

EPHEMERIS_TYPE = 0
CLASSIFICATION_TYPE = U
NORAD_CAT_ID   = 68077
ELEMENT_SET_NO = 999
REV_AT_EPOCH   = 294
BSTAR          = -.65140558E-2
MEAN_MOTION_DOT = -.1483764E-1
MEAN_MOTION_DDOT = 0

CCSDS_OMM_VERS = 2.0
CREATION_DATE  = 
ORIGINATOR     = 

OBJECT_NAME    = STARLINK-36973
OBJECT_ID      = 2026-042K
CENTER_NAME    = EARTH
REF_FRAME      = TEME
TIME_SYSTEM    = UTC
MEAN_ELEMENT_THEORY = SGP/SGP4

EPOCH          = 2026-03-15T06:00:00.999648
MEAN_MOTION    = 15.86653358
ECCENTRICITY   = .00007697
INCLINATION    = 53.1601
RA_OF_ASC_NODE = 166.8617
ARG_OF_PERICENTER = 79.6249
MEAN_ANOMALY   = 250.5286

EPHEMERIS_TYPE = 0
CLASSIFICATION_TYPE = U
NORAD_CAT_ID   = 68078
ELEMENT_SET_NO = 999
REV_AT_EPOCH   = 294
BSTAR          = -.64476887E-2
MEAN_MOTION_DOT = -.1454367E-1
MEAN_MOTION_DDOT = 0

CCSDS_OMM_VERS = 2.0
CREATION_DATE  = 
ORIGINATOR     = 

OBJECT_NAME    = STARLINK-37063
OBJECT_ID      = 2026-042L
CENTER_NAME    = EARTH
REF_FRAME      = TEME
TIME_SYSTEM    = UTC
MEAN_ELEMENT_THEORY = SGP/SGP4

EPOCH          = 2026-03-15T06:00:00.999648
MEAN_MOTION    = 15.86563195
ECCENTRICITY   = .00010178
INCLINATION    = 53.1595
RA_OF_ASC_NODE = 166.8695
ARG_OF_PERICENTER = 83.1617
MEAN_ANOMALY   = 243.2170

EPHEMERIS_TYPE = 0
CLASSIFICATION_TYPE = U
NORAD_CAT_ID   = 68079
ELEMENT_SET_NO = 999
REV_AT_EPOCH   = 294
BSTAR          = -.64701835E-2
MEAN_MOTION_DOT = -.1453316E-1
MEAN_MOTION_DDOT = 0

CCSDS_OMM_VERS = 2.0
CREATION_DATE  = 
ORIGINATOR     = 

OBJECT_NAME    = STARLINK-37051
OBJECT_ID      = 2026-042M
CENTER_NAME    = EARTH
REF_FRAME      = TEME
TIME_SYSTEM    = UTC
MEAN_ELEMENT_THEORY = SGP/SGP4

EPOCH          = 2026-03-15T06:00:00.999648
MEAN_MOTION    = 15.86863175
ECCENTRICITY   = .00009383
INCLINATION    = 53.1598
RA_OF_ASC_NODE = 166.8464
ARG_OF_PERICENTER = 73.9774
MEAN_ANOMALY   = 263.4572

EPHEMERIS_TYPE = 0
CLASSIFICATION_TYPE = U
NORAD_CAT_ID   = 68080
ELEMENT_SET_NO = 999
REV_AT_EPOCH   = 294
BSTAR          = -.63914498E-2
MEAN_MOTION_DOT = -.1456604E-1
MEAN_MOTION_DDOT = 0

